{"type": "FeatureCollection", "features": [ {"type": "Feature", "properties": {"norad_id": 38779, "name": "GSAT-10 (GAGAN/PRN 128)", "group": "gnss", "lat": 0.06906471831207688, "lon": 47.05625072754495, "alt_km": 35783.68742184852, "timestamp": "2025-12-17T15:50:10.021561+00:00", "meta": {"OBJECT_NAME": "GSAT-10 (GAGAN/PRN 128)", "OBJECT_ID": "2012-051B", "EPOCH": "2025-12-17T02:39:38.687616", "MEAN_MOTION": 1.00272719, "ECCENTRICITY": 0.00024891, "INCLINATION": 0.08, "RA_OF_ASC_NODE": 265.8584, "ARG_OF_PERICENTER": 219.6674, "MEAN_ANOMALY": 83.397, "EPHEMERIS_TYPE": 0, "CLASSIFICATION_TYPE": "U", "NORAD_CAT_ID": 38779, "ELEMENT_SET_NO": 999, "REV_AT_EPOCH": 4827, "BSTAR": 0, "MEAN_MOTION_DOT": -1.41e-06, "MEAN_MOTION_DDOT": 0}, "tle": {"line1": "1 38779U 12051B   25351.11086444 -.00000141  00000+0  00000+0 0  9992", "line2": "2 38779   0.0800 265.8584 0002489 219.6674  83.3970  1.00272719 48270"}}, "geometry": {"type": "Point", "coordinates": [47.05625072754495, 0.06906471831207688]}}, {"type": "Feature", "properties": {"norad_id": 38833, "name": "GPS BIIF-3  (PRN 24)", "group": "gnss", "lat": -40.80671676289639, "lon": 10.67856307851619, "alt_km": 20646.959018115434, "timestamp": "2025-12-17T15:50:10.021573+00:00", "meta": {"OBJECT_NAME": "GPS BIIF-3  (PRN 24)", "OBJECT_ID": "2012-053A", "EPOCH": "2025-12-16T20:09:13.627584", "MEAN_MOTION": 2.00565075, "ECCENTRICITY": 0.01759464, "INCLINATION": 53.5585, "RA_OF_ASC_NODE": 151.0706, "ARG_OF_PERICENTER": 64.0575, "MEAN_ANOMALY": 297.7402, "EPHEMERIS_TYPE": 0, "CLASSIFICATION_TYPE": "U", "NORAD_CAT_ID": 38833, "ELEMENT_SET_NO": 999, "REV_AT_EPOCH": 9578, "BSTAR": 0, "MEAN_MOTION_DOT": 7.2e-07, "MEAN_MOTION_DDOT": 0}, "tle": {"line1": "1 38833U 12053A   25350.83974106  .00000072  00000+0  00000+0 0  9996", "line2": "2 38833  53.5585 151.0706 0175946  64.0575 297.7402  2.00565075 95787"}}, "geometry": {"type": "Point", "coordinates": [10.67856307851619, -40.80671676289639]}}, {"type": "Feature", "properties": {"norad_id": 38857, "name": "GSAT0103 (GALILEO-FM3)", "group": "gnss", "lat": 13.203409592621192, "lon": 115.72619218819425, "alt_km": 23223.12825251599, "timestamp": "2025-12-17T15:50:10.021584+00:00", "meta": {"OBJECT_NAME": "GSAT0103 (GALILEO-FM3)", "OBJECT_ID": "2012-055A", "EPOCH": "2025-12-13T12:39:44.093088", "MEAN_MOTION": 1.70473367, "ECCENTRICITY": 0.00026827, "INCLINATION": 55.6929, "RA_OF_ASC_NODE": 106.6448, "ARG_OF_PERICENTER": 268.8486, "MEAN_ANOMALY": 91.0883, "EPHEMERIS_TYPE": 0, "CLASSIFICATION_TYPE": "U", "NORAD_CAT_ID": 38857, "ELEMENT_SET_NO": 999, "REV_AT_EPOCH": 8184, "BSTAR": 0, "MEAN_MOTION_DOT": 1e-08, "MEAN_MOTION_DDOT": 0}, "tle": {"line1": "1 38857U 12055A   25347.52759367  .00000001  00000+0  00000+0 0  9998", "line2": "2 38857  55.6929 106.6448 0002682 268.8486  91.0883  1.70473367 81846"}}, "geometry": {"type": "Point", "coordinates": [115.72619218819425, 13.203409592621192]}}, {"type": "Feature", "properties": {"norad_id": 38953, "name": "BEIDOU-2 G6 (C02)", "group": "gnss", "lat": -1.797618181323093, "lon": 48.1564017406331, "alt_km": 35761.361520139675, "timestamp": "2025-12-17T15:50:10.021596+00:00", "meta": {"OBJECT_NAME": "BEIDOU-2 G6 (C02)", "OBJECT_ID": "2012-059A", "EPOCH": "2025-12-16T20:36:20.086848", "MEAN_MOTION": 1.00269484, "ECCENTRICITY": 0.00080985, "INCLINATION": 3.9596, "RA_OF_ASC_NODE": 75.466, "ARG_OF_PERICENTER": 291.412, "MEAN_ANOMALY": 111.9285, "EPHEMERIS_TYPE": 0, "CLASSIFICATION_TYPE": "U", "NORAD_CAT_ID": 38953, "ELEMENT_SET_NO": 999, "REV_AT_EPOCH": 4808, "BSTAR": 0, "MEAN_MOTION_DOT": -1.53e-06, "MEAN_MOTION_DDOT": 0}, "tle": {"line1": "1 38953U 12059A   25350.85856582 -.00000153  00000+0  00000+0 0  9995", "line2": "2 38953   3.9596  75.4660 0008098 291.4120 111.9285  1.00269484 48085"}}, "geometry": {"type": "Point", "coordinates": [48.1564017406331, -1.797618181323093]}}, {"type": "Feature", "properties": {"norad_id": 38977, "name": "LUCH 5B (SDCM/PRN 125)", "group": "gnss", "lat": -9.813331122279623, "lon": -52.3978492757041, "alt_km": 35773.5978827737, "timestamp": "2025-12-17T15:50:10.021608+00:00", "meta": {"OBJECT_NAME": "LUCH 5B (SDCM/PRN 125)", "OBJECT_ID": "2012-061A", "EPOCH": "2025-12-16T23:33:05.565888", "MEAN_MOTION": 1.00272466, "ECCENTRICITY": 0.0006765, "INCLINATION": 10.0904, "RA_OF_ASC_NODE": 51.6657, "ARG_OF_PERICENTER": 194.2806, "MEAN_ANOMALY": 176.8583, "EPHEMERIS_TYPE": 0, "CLASSIFICATION_TYPE": "U", "NORAD_CAT_ID": 38977, "ELEMENT_SET_NO": 999, "REV_AT_EPOCH": 4778, "BSTAR": 0, "MEAN_MOTION_DOT": -1.22e-06, "MEAN_MOTION_DDOT": 0}, "tle": {"line1": "1 38977U 12061A   25350.98131442 -.00000122  00000+0  00000+0 0  9995", "line2": "2 38977  10.0904  51.6657 0006765 194.2806 176.8583  1.00272466 47786"}}, "geometry": {"type": "Point", "coordinates": [-52.3978492757041, -9.813331122279623]}}, {"type": "Feature", "properties": {"norad_id": 39155, "name": "COSMOS 2485 (747)", "group": "gnss", "lat": -65.32752159735732, "lon": -8.344497586329123, "alt_km": 19088.70298060931, "timestamp": "2025-12-17T15:50:10.021623+00:00", "meta": {"OBJECT_NAME": "COSMOS 2485 (747)", "OBJECT_ID": "2013-019A", "EPOCH": "2025-12-17T07:21:50.321088", "MEAN_MOTION": 2.13103137, "ECCENTRICITY": 0.00247401, "INCLINATION": 65.3162, "RA_OF_ASC_NODE": 79.7134, "ARG_OF_PERICENTER": 229.9478, "MEAN_ANOMALY": 129.8522, "EPHEMERIS_TYPE": 0, "CLASSIFICATION_TYPE": "U", "NORAD_CAT_ID": 39155, "ELEMENT_SET_NO": 999, "REV_AT_EPOCH": 9840, "BSTAR": 0, "MEAN_MOTION_DOT": -4.8e-07, "MEAN_MOTION_DDOT": 0}, "tle": {"line1": "1 39155U 13019A   25351.30683242 -.00000048  00000+0  00000+0 0  9992", "line2": "2 39155  65.3162  79.7134 0024740 229.9478 129.8522  2.13103137 98408"}}, "geometry": {"type": "Point", "coordinates": [-8.344497586329123, -65.32752159735732]}}, {"type": "Feature", "properties": {"norad_id": 39166, "name": "GPS BIIF-4  (PRN 27)", "group": "gnss", "lat": -24.097639852973575, "lon": -102.1307922725327, "alt_km": 20107.64149924617, "timestamp": "2025-12-17T15:50:10.021634+00:00", "meta": {"OBJECT_NAME": "GPS BIIF-4  (PRN 27)", "OBJECT_ID": "2013-023A", "EPOCH": "2025-12-15T04:59:33.811872", "MEAN_MOTION": 2.00564736, "ECCENTRICITY": 0.01378529, "INCLINATION": 54.65, "RA_OF_ASC_NODE": 276.4679, "ARG_OF_PERICENTER": 48.4851, "MEAN_ANOMALY": 312.7012, "EPHEMERIS_TYPE": 0, "CLASSIFICATION_TYPE": "U", "NORAD_CAT_ID": 39166, "ELEMENT_SET_NO": 999, "REV_AT_EPOCH": 9219, "BSTAR": 0, "MEAN_MOTION_DOT": -6.8e-07, "MEAN_MOTION_DDOT": 0}, "tle": {"line1": "1 39166U 13023A   25349.20803023 -.00000068  00000+0  00000+0 0  9998", "line2": "2 39166  54.6500 276.4679 0137852  48.4851 312.7012  2.00564736 92194"}}, "geometry": {"type": "Point", "coordinates": [-102.1307922725327, -24.097639852973575]}}, {"type": "Feature", "properties": {"norad_id": 39199, "name": "IRNSS-1A", "group": "gnss", "lat": -25.145470606243595, "lon": 25.04534360324584, "alt_km": 35815.30363112748, "timestamp": "2025-12-17T15:50:10.021648+00:00", "meta": {"OBJECT_NAME": "IRNSS-1A", "OBJECT_ID": "2013-034A", "EPOCH": "2025-12-16T18:45:30.034368", "MEAN_MOTION": 1.00271882, "ECCENTRICITY": 0.0023621, "INCLINATION": 35.3115, "RA_OF_ASC_NODE": 66.4956, "ARG_OF_PERICENTER": 207.6795, "MEAN_ANOMALY": 147.7415, "EPHEMERIS_TYPE": 0, "CLASSIFICATION_TYPE": "U", "NORAD_CAT_ID": 39199, "ELEMENT_SET_NO": 999, "REV_AT_EPOCH": 4553, "BSTAR": 0, "MEAN_MOTION_DOT": 6.3e-07, "MEAN_MOTION_DDOT": 0}, "tle": {"line1": "1 39199U 13034A   25350.78159762  .00000063  00000+0  00000+0 0  9999", "line2": "2 39199  35.3115  66.4956 0023621 207.6795 147.7415  1.00271882 45532"}}, "geometry": {"type": "Point", "coordinates": [25.04534360324584, -25.145470606243595]}}, {"type": "Feature", "properties": {"norad_id": 39533, "name": "GPS BIIF-5  (PRN 30)", "group": "gnss", "lat": -19.825591408902003, "lon": 141.30086690292254, "alt_km": 20249.22110220302, "timestamp": "2025-12-17T15:50:10.021660+00:00", "meta": {"OBJECT_NAME": "GPS BIIF-5  (PRN 30)", "OBJECT_ID": "2014-008A", "EPOCH": "2025-12-17T04:42:21.782016", "MEAN_MOTION": 2.00574699, "ECCENTRICITY": 0.00793343, "INCLINATION": 53.632, "RA_OF_ASC_NODE": 156.7429, "ARG_OF_PERICENTER": 226.5757, "MEAN_ANOMALY": 132.7662, "EPHEMERIS_TYPE": 0, "CLASSIFICATION_TYPE": "U", "NORAD_CAT_ID": 39533, "ELEMENT_SET_NO": 999, "REV_AT_EPOCH": 8603, "BSTAR": 0, "MEAN_MOTION_DOT": 7.8e-07, "MEAN_MOTION_DDOT": 0}, "tle": {"line1": "1 39533U 14008A   25351.19608544  .00000078  00000+0  00000+0 0  9992", "line2": "2 39533  53.6320 156.7429 0079334 226.5757 132.7662  2.00574699 86034"}}, "geometry": {"type": "Point", "coordinates": [141.30086690292254, -19.825591408902003]}}, {"type": "Feature", "properties": {"norad_id": 39617, "name": "ASTRA 5B (EGNOS/PRN 123)", "group": "gnss", "lat": -0.056552809239425544, "lon": -12.369796912084695, "alt_km": 35781.55444300539, "timestamp": "2025-12-17T15:50:10.021687+00:00", "meta": {"OBJECT_NAME": "ASTRA 5B (EGNOS/PRN 123)", "OBJECT_ID": "2014-011B", "EPOCH": "2025-12-16T23:44:27.856320", "MEAN_MOTION": 1.00274743, "ECCENTRICITY": 0.00041876, "INCLINATION": 0.0687, "RA_OF_ASC_NODE": 45.2179, "ARG_OF_PERICENTER": 224.2454, "MEAN_ANOMALY": 196.0373, "EPHEMERIS_TYPE": 0, "CLASSIFICATION_TYPE": "U", "NORAD_CAT_ID": 39617, "ELEMENT_SET_NO": 999, "REV_AT_EPOCH": 4284, "BSTAR": 0, "MEAN_MOTION_DOT": 1.62e-06, "MEAN_MOTION_DDOT": 0}, "tle": {"line1": "1 39617U 14011B   25350.98921130  .00000162  00000+0  00000+0 0  9998", "line2": "2 39617   0.0687  45.2179 0004187 224.2454 196.0373  1.00274743 42845"}}, "geometry": {"type": "Point", "coordinates": [-12.369796912084695, -0.056552809239425544]}}]}